STARLINK-33949          
1 64105U 25110K   25163.16668981  .00048441  00000+0  87447-3 0  9990
2 64105  53.1599 213.7266 0001381  70.9648  71.1525 15.49281371  4224
STARLINK-33970          
1 64106U 25110L   25163.16668981  .00053255  00000+0  96034-3 0  9992
2 64106  53.1599 213.7222 0001108  72.3014  71.7246 15.49270937  4229
STARLINK-33912          
1 64107U 25110M   25163.16668981  .00046694  00000+0  84340-3 0  9999
2 64107  53.1598 213.7189 0001301  76.1869  69.7665 15.49281850  4213
STARLINK-34156          
1 64108U 25110N   25163.16668981  .00051164  00000+0  92297-3 0  9998
2 64108  53.1599 213.7146 0001350  74.0740  73.7882 15.49277710  4224
STARLINK-34124          
1 64109U 25110P   25163.16668981  .00045408  00000+0  82050-3 0  9999
2 64109  53.1599 213.7105 0001328  74.6035  75.1841 15.49282898  4222
STARLINK-34145          
1 64110U 25110Q   25163.16668981  .00046859  00000+0  84631-3 0  9999
2 64110  53.1595 213.7067 0001369  76.6159  75.0852 15.49282769  4229
STARLINK-34148          
1 64111U 25110R   25163.16668981  .00046572  00000+0  84121-3 0  9996
2 64111  53.1598 213.7029 0001305  77.3035  76.3158 15.49282529  4218
STARLINK-34136          
1 64112U 25110S   25163.16668981  .00050313  00000+0  90788-3 0  9991
2 64112  53.1598 213.6982 0001279  75.0818  80.4499 15.49277128  4224
STARLINK-33839          
1 64113U 25110T   25163.16668981  .00045404  00000+0  82039-3 0  9997
2 64113  53.1599 213.6945 0001298  78.3260  79.1261 15.49283890  4228
STARLINK-34064          
1 64114U 25110U   25163.16668981  .00046938  00000+0  84773-3 0  9998
2 64114  53.1599 213.6908 0001192  81.4317  77.9381 15.49282309  4222
STARLINK-34067          
1 64115U 25110V   25163.16668981  .00043651  00000+0  78920-3 0  9995
2 64115  53.1596 213.6864 0001323  74.0867  87.2021 15.49283907  4225
STARLINK-34080          
1 64116U 25110W   25163.16668981  .00047315  00000+0  85441-3 0  9993
2 64116  53.1597 213.6827 0001411  71.1623  92.0397 15.49282546  4220
STARLINK-34122          
1 64117U 25110X   25163.16668981  .00048102  00000+0  86842-3 0  9995
2 64117  53.1599 213.6782 0001417  73.5110  91.6070 15.49282288  4222
STARLINK-33964          
1 64118U 25110Y   25163.16668981  .00046003  00000+0  83106-3 0  9994
2 64118  53.1596 213.6743 0001214  76.7015  90.3340 15.49283757  4229
STARLINK-34160          
1 64119U 25110Z   25163.16668981  .00048083  00000+0  86808-3 0  9997
2 64119  53.1596 213.6707 0001417  74.7356  94.2167 15.49282047  4222
STARLINK-34151          
1 64120U 25110AA  25163.16668981  .00042937  00000+0  77648-3 0  9993
2 64120  53.1596 213.6665 0001326  76.0143  94.8596 15.49284449  4225
STARLINK-34189          
1 64121U 25110AB  25163.16668981  .00047495  00000+0  85761-3 0  9993
2 64121  53.1597 213.6591 0001386  73.5870 101.1158 15.49282580  4220
STARLINK-33991          
1 64122U 25110AC  25163.16668981  .00045778  00000+0  82706-3 0  9992
2 64122  53.1596 213.6630 0001408  77.1273  95.6598 15.49283454  4222
STARLINK-11727 [DTC]    
1 64123U 25111A   25163.42394930  .00235817  00000+0  13154-2 0  9998
2 64123  42.9992 164.6980 0001435 265.0741  94.9966 15.77947690  4108
STARLINK-11724 [DTC]    
1 64124U 25111B   25162.91668981 -.00001777  00000+0 -73496-5 0  9998
2 64124  42.9990 167.7180 0001646 265.3129 117.5820 15.77849437  4033
STARLINK-11725 [DTC]    
1 64125U 25111C   25163.50002315 -.00024605  00000+0 -13889-3 0  9991
2 64125  42.9989 164.0979 0001721 271.3975 216.8164 15.77861632  4112
STARLINK-11717 [DTC]    
1 64126U 25111D   25163.50002315  .00090985  00000+0  52127-3 0  9992
2 64126  43.0001 163.9600 0001856 285.1465 258.5769 15.77806813  4063
STARLINK-11721 [DTC]    
1 64127U 25111E   25163.50002315  .00073842  00000+0  42432-3 0  9994
2 64127  42.9995 164.0297 0001674 270.3360 245.6429 15.77813802  4118
STARLINK-11722 [DTC]    
1 64128U 25111F   25163.50002315  .00095487  00000+0  54683-3 0  9995
2 64128  43.0003 163.8910 0001997 291.8735 279.6066 15.77798510  4068
STARLINK-11679 [DTC]    
1 64129U 25111G   25163.50002315  .00102236  00000+0  58452-3 0  9995
2 64129  43.0005 163.8208 0001588 272.8203 326.3934 15.77810515  4116
STARLINK-11735 [DTC]    
1 64130U 25111H   25163.50002315  .00078453  00000+0  45012-3 0  9998
2 64130  43.0007 163.7522 0001518 295.4736 331.4744 15.77827600  3975
STARLINK-11720 [DTC]    
1 64131U 25111J   25162.05921731  .00287745  00000+0  11609-2 0  9990
2 64131  43.0006 172.5067 0001197 281.0727  79.0011 15.84796932  3840
STARLINK-11718 [DTC]    
1 64132U 25111K   25163.37478042  .00167323  00000+0  68382-3 0  9999
2 64132  43.0008 164.2971 0001628 305.5616  54.5105 15.84846309  4165
STARLINK-11716 [DTC]    
1 64133U 25111L   25163.16668981 -.01062296  00000+0 -55695-2 0  9998
2 64133  43.0005 165.5451 0001445 275.0160 350.1086 15.82511391  4129
STARLINK-11714 [DTC]    
1 64134U 25111M   25163.50002315 -.00977371  00000+0 -50930-2 0  9995
2 64134  43.0013 163.6546 0001586 283.7056  21.7683 15.82420753  4124
STARLINK-11712 [DTC]    
1 64135U 25111N   25163.44525688  .00026601  00000+0  11281-3 0  9998
2 64135  43.0014 163.9716 0001439 254.2934 105.7780 15.84774987  4116
STARLINK-34254          
1 64136U 25111P   25163.16668981  .00028058  00000+0  48346-3 0  9992
2 64136  42.9994 167.1950 0000802 270.7214  50.9846 15.50515887  4068
STARLINK-34230          
1 64137U 25111Q   25163.16668981  .00025684  00000+0  44315-3 0  9997
2 64137  42.9994 167.1903 0000801 275.0762  48.5473 15.50518034  4068
STARLINK-34129          
1 64138U 25111R   25163.16668981  .00023718  00000+0  40974-3 0  9991
2 64138  42.9990 167.1810 0000970 269.5390  57.9173 15.50520302  4112
STARLINK-34212          
1 64139U 25111S   25163.16668981  .00027032  00000+0  46599-3 0  9994
2 64139  42.9991 167.1856 0000838 272.9513  52.5881 15.50519818  4063
STARLINK-34149          
1 64140U 25111T   25163.16668981  .00026034  00000+0  44911-3 0  9993
2 64140  42.9992 167.1759 0000809 267.7189  61.6598 15.50515873  4060
STARLINK-34054          
1 64141U 25111U   25163.16668981  .00025833  00000+0  44565-3 0  9995
2 64141  42.9993 167.1709 0000912 270.5841  60.7067 15.50519468  4064
STARLINK-34195          
1 64142U 25111V   25163.16668981  .00029997  00000+0  51634-3 0  9996
2 64142  42.9990 167.1658 0000768 273.8082  59.3960 15.50515264  4063
STARLINK-34133          
1 64143U 25111W   25163.16668981  .00031772  00000+0  54643-3 0  9994
2 64143  42.9991 167.1559 0000867 273.8950  63.1402 15.50515766  4060
STARLINK-34181          
1 64144U 25111X   25163.16668981  .00031919  00000+0  54898-3 0  9990
2 64144  42.9990 167.1606 0000850 280.6972  54.4252 15.50512788  4062
STARLINK-34186          
1 64145U 25111Y   25163.16668981  .00027275  00000+0  47014-3 0  9993
2 64145  42.9989 167.1520 0000843 278.1598  60.7930 15.50518177  4065
STARLINK-34314          
1 64146U 25112A   25163.50002315 -.02178913  00000+0 -47292-1 0  9992
2 64146  97.6026 212.6830 0002571  96.8659 156.8691 15.47949908  3660
STARLINK-33926          
1 64147U 25112B   25163.16668981  .00031870  00000+0  58568-3 0  9998
2 64147  97.6028 212.3332 0001479  84.0788 114.1623 15.49172074  3582
STARLINK-34213          
1 64148U 25112C   25163.16668981  .00036014  00000+0  66212-3 0  9999
2 64148  97.6029 212.3371 0001789  80.8357 121.2097 15.49134837  3597
STARLINK-33924          
1 64149U 25112D   25163.16668981  .00026427  00000+0  43005-3 0  9992
2 64149  97.6029 212.3372 0001456  90.8323 115.4346 15.52649002  3607
STARLINK-34209          
1 64150U 25112E   25163.16668981  .00026240  00000+0  48286-3 0  9993
2 64150  97.6029 212.3353 0001465  85.5844 118.4044 15.49173592  3652
STARLINK-34338          
1 64151U 25112F   25163.16668981  .00025831  00000+0  47538-3 0  9998
2 64151  97.6029 212.3359 0001444  85.8170 120.0888 15.49173863  3589
STARLINK-34348          
1 64152U 25112G   25163.16668981  .00027859  00000+0  51245-3 0  9991
2 64152  97.6030 212.3370 0001388  85.2630 122.5587 15.49173047  3595
STARLINK-34345          
1 64153U 25112H   25163.16668981  .00028499  00000+0  52412-3 0  9990
2 64153  97.6031 212.3378 0001385  87.0727 122.6646 15.49174041  3580
STARLINK-33945          
1 64154U 25112J   25163.50002315 -.02574616  00000+0 -46828-1 0  9995
2 64154  97.6019 212.8351 0002239 107.0252 124.1866 15.52926242  3637
STARLINK-34346          
1 64155U 25112K   25163.50002315 -.02179121  00000+0 -33618-1 0  9991
2 64155  97.6028 212.8446 0001984  95.4114 151.2388 15.57372357  3655
STARLINK-34277          
1 64156U 25112L   25163.50002315 -.02170729  00000+0 -33475-1 0  9998
2 64156  97.6026 212.8446 0002082  97.1688 151.3987 15.57369064  3645
STARLINK-34343          
1 64157U 25112M   25163.50002315 -.02165359  00000+0 -33387-1 0  9994
2 64157  97.6023 212.8466 0001973  94.1820 156.3023 15.57366051  3704
STARLINK-34166          
1 64158U 25112N   25163.50002315 -.02162837  00000+0 -33344-1 0  9996
2 64158  97.6024 212.8465 0001999  96.9626 155.4387 15.57365168  3540
STARLINK-34344          
1 64159U 25112P   25163.50002315 -.02172188  00000+0 -33501-1 0  9992
2 64159  97.6026 212.8485 0001982  98.5032 157.7299 15.57369608  3580
STARLINK-34339          
1 64160U 25112Q   25163.50002315 -.02159146  00000+0 -33283-1 0  9990
2 64160  97.6026 212.8476 0001992  94.4133 159.9052 15.57362801  3646
STARLINK-34341          
1 64161U 25112R   25163.50002315 -.02164675  00000+0 -33376-1 0  9997
2 64161  97.6023 212.8495 0001968  95.1281 163.0223 15.57365418  3643
STARLINK-34317          
1 64162U 25112S   25163.50002315 -.02180583  00000+0 -33643-1 0  9991
2 64162  97.6025 212.8503 0001951  97.6708 162.3946 15.57373048  3708
STARLINK-34340          
1 64163U 25112T   25163.50002315 -.02171281  00000+0 -33486-1 0  9992
2 64163  97.6025 212.8507 0002000  99.7812 162.2019 15.57368824  3647
